[{"OBJECT_NAME":"STARLINK-2442","OBJECT_ID":"2021-027Q","EPOCH":"2026-03-10T00:00:02.999808","MEAN_MOTION":15.12843694,"ECCENTRICITY":0.00016767,"INCLINATION":53.0809,"RA_OF_ASC_NODE":150.1574,"ARG_OF_PERICENTER":67.9437,"MEAN_ANOMALY":29.2059,"EPHEMERIS_TYPE":0,"CLASSIFICATION_TYPE":"U","NORAD_CAT_ID":48106,"ELEMENT_SET_NO":999,"REV_AT_EPOCH":580,"BSTAR":0.075140928,"MEAN_MOTION_DOT":0.01463566,"MEAN_MOTION_DDOT":0},{"OBJECT_NAME":"TRANSPORTER-12 OBJECT BR","OBJECT_ID":"2025-009BR","EPOCH":"2026-03-09T17:25:41.408544","MEAN_MOTION":15.22079833,"ECCENTRICITY":0.00038612,"INCLINATION":97.4001,"RA_OF_ASC_NODE":149.3786,"ARG_OF_PERICENTER":342.5368,"MEAN_ANOMALY":17.5735,"EPHEMERIS_TYPE":0,"CLASSIFICATION_TYPE":"U","NORAD_CAT_ID":62672,"ELEMENT_SET_NO":999,"REV_AT_EPOCH":12125,"BSTAR":0.00024627626,"MEAN_MOTION_DOT":5.568e-5,"MEAN_MOTION_DDOT":0}]
